start=new Date('2022-05-26T00:00:00.000Z').valueOf();
sats=[{"SITE":"AFETR","OBJECT_ID":"2021-115V","SEMIMAJOR_AXIS":"6917.836","PERIOD":"95.437","RA_OF_ASC_NODE":"241.1294","MEAN_ANOMALY":"251.7374","COUNTRY_CODE":"US","BSTAR":"-0.00110820000000","OBJECT_NAME":"STARLINK-3239","DECAY_DATE":null,"ELEMENT_SET_NO":"999","OBJECT_TYPE":"PAYLOAD","INCLINATION":"53.2147","PERIAPSIS":"538.194","ARG_OF_PERICENTER":"30.1854","ECCENTRICITY":"0.00021780","MEAN_MOTION_DOT":"-0.00017890","MEAN_MOTION":"15.08854616","TLE_LINE2":"2 49743  53.2147 241.1294 0002178  30.1854 251.7374 15.08854616  1300","LAUNCH_DATE":"2021-12-02","FILE":"3464394","EPOCH":"2022-05-25T22:00:00.999936","MEAN_ELEMENT_THEORY":"SGP4","REF_FRAME":"TEME","MEAN_MOTION_DDOT":"0.0000000000000","CLASSIFICATION_TYPE":"U","EPHEMERIS_TYPE":"0","RCS_SIZE":"LARGE","APOAPSIS":"541.207","REV_AT_EPOCH":"130","TLE_LINE1":"1 49743U 21115V   22145.91667824 -.00017890  00000-0 -11082-2 0  9995","CENTER_NAME":"EARTH","GP_ID":"204540430","TIME_SYSTEM":"UTC","NORAD_CAT_ID":"49743"},{"FILE":"3464394","EPOCH":"2022-05-25T22:00:00.999936","MEAN_MOTION_DDOT":"0.0000000000000","CLASSIFICATION_TYPE":"U","MEAN_ELEMENT_THEORY":"SGP4","REF_FRAME":"TEME","REV_AT_EPOCH":"130","EPHEMERIS_TYPE":"0","RCS_SIZE":"LARGE","APOAPSIS":"541.508","TLE_LINE1":"1 49744U 21115W   22145.91667824 -.00019644  00000-0 -12190-2 0  9996","CENTER_NAME":"EARTH","GP_ID":"204539178","TIME_SYSTEM":"UTC","NORAD_CAT_ID":"49744","SEMIMAJOR_AXIS":"6917.843","OBJECT_ID":"2021-115W","SITE":"AFETR","MEAN_ANOMALY":"156.2948","PERIOD":"95.437","RA_OF_ASC_NODE":"241.1265","BSTAR":"-0.00121900000000","COUNTRY_CODE":"US","ELEMENT_SET_NO":"999","OBJECT_NAME":"STARLINK-3231","DECAY_DATE":null,"INCLINATION":"53.2117","PERIAPSIS":"537.908","OBJECT_TYPE":"PAYLOAD","MEAN_MOTION":"15.08852189","ARG_OF_PERICENTER":"25.6536","ECCENTRICITY":"0.00026020","MEAN_MOTION_DOT":"-0.00019644","LAUNCH_DATE":"2021-12-02","TLE_LINE2":"2 49744  53.2117 241.1265 0002602  25.6536 156.2948 15.08852189  1303"},{"PERIAPSIS":"538.033","INCLINATION":"53.2152","OBJECT_TYPE":"PAYLOAD","ELEMENT_SET_NO":"999","DECAY_DATE":null,"OBJECT_NAME":"STARLINK-3241","LAUNCH_DATE":"2021-12-02","TLE_LINE2":"2 49745  53.2152 241.1331 0002329  26.9056 215.0061 15.08873128  1300","MEAN_MOTION":"15.08873128","MEAN_MOTION_DOT":"-0.00061541","ARG_OF_PERICENTER":"26.9056","ECCENTRICITY":"0.00023290","SEMIMAJOR_AXIS":"6917.779","SITE":"AFETR","OBJECT_ID":"2021-115X","BSTAR":"-0.00387820000000","COUNTRY_CODE":"US","PERIOD":"95.435","MEAN_ANOMALY":"215.0061","RA_OF_ASC_NODE":"241.1331","GP_ID":"204539428","CENTER_NAME":"EARTH","TLE_LINE1":"1 49745U 21115X   22145.91667824 -.00061541  00000-0 -38782-2 0  9995","NORAD_CAT_ID":"49745","TIME_SYSTEM":"UTC","EPOCH":"2022-05-25T22:00:00.999936","FILE":"3464394","REV_AT_EPOCH":"130","RCS_SIZE":"LARGE","APOAPSIS":"541.255","EPHEMERIS_TYPE":"0","CLASSIFICATION_TYPE":"U","MEAN_MOTION_DDOT":"0.0000000000000","REF_FRAME":"TEME","MEAN_ELEMENT_THEORY":"SGP4"},{"RCS_SIZE":"LARGE","APOAPSIS":"540.980","EPHEMERIS_TYPE":"0","REV_AT_EPOCH":"130","REF_FRAME":"TEME","MEAN_ELEMENT_THEORY":"SGP4","CLASSIFICATION_TYPE":"U","MEAN_MOTION_DDOT":"0.0000000000000","EPOCH":"2022-05-25T22:00:00.999936","FILE":"3464394","NORAD_CAT_ID":"49746","TIME_SYSTEM":"UTC","GP_ID":"204539679","CENTER_NAME":"EARTH","TLE_LINE1":"1 49746U 21115Y   22145.91667824 -.00040622  00000-0 -25472-2 0  9995","COUNTRY_CODE":"US","BSTAR":"-0.00254720000000","MEAN_ANOMALY":"102.0331","PERIOD":"95.436","RA_OF_ASC_NODE":"241.1395","SITE":"AFETR","OBJECT_ID":"2021-115Y","SEMIMAJOR_AXIS":"6917.818","TLE_LINE2":"2 49746  53.2087 241.1395 0001876  39.9164 102.0331 15.08860535  1301","LAUNCH_DATE":"2021-12-02","MEAN_MOTION_DOT":"-0.00040622","ARG_OF_PERICENTER":"39.9164","ECCENTRICITY":"0.00018760","MEAN_MOTION":"15.08860535","OBJECT_TYPE":"PAYLOAD","PERIAPSIS":"538.385","INCLINATION":"53.2087","DECAY_DATE":null,"OBJECT_NAME":"STARLINK-3233","ELEMENT_SET_NO":"999"},{"EPHEMERIS_TYPE":"0","APOAPSIS":"541.279","RCS_SIZE":"LARGE","REV_AT_EPOCH":"2660","MEAN_ELEMENT_THEORY":"SGP4","REF_FRAME":"TEME","MEAN_MOTION_DDOT":"0.0000000000000","CLASSIFICATION_TYPE":"U","EPOCH":"2022-05-25T17:55:46.625952","FILE":"3464394","NORAD_CAT_ID":"49747","TIME_SYSTEM":"UTC","GP_ID":"204539930","TLE_LINE1":"1 49747U 21115Z   22145.74706743  .00002159  00000-0  15371-3 0  9990","CENTER_NAME":"EARTH","COUNTRY_CODE":"US","BSTAR":"0.00015371000000","PERIOD":"95.438","RA_OF_ASC_NODE":"241.8831","MEAN_ANOMALY":"322.1790","OBJECT_ID":"2021-115Z","SITE":"AFETR","SEMIMAJOR_AXIS":"6917.900","LAUNCH_DATE":"2021-12-02","TLE_LINE2":"2 49747  53.2143 241.8831 0002188  37.9356 322.1790 15.08833622 26606","ARG_OF_PERICENTER":"37.9356","ECCENTRICITY":"0.00021880","MEAN_MOTION_DOT":"0.00002159","MEAN_MOTION":"15.08833622","OBJECT_TYPE":"PAYLOAD","INCLINATION":"53.2143","PERIAPSIS":"538.251","OBJECT_NAME":"STARLINK-3247","DECAY_DATE":null,"ELEMENT_SET_NO":"999"},{"ELEMENT_SET_NO":"999","DECAY_DATE":null,"OBJECT_NAME":"STARLINK-3248","PERIAPSIS":"538.234","INCLINATION":"53.2209","OBJECT_TYPE":"PAYLOAD","MEAN_MOTION":"15.08825552","MEAN_MOTION_DOT":"-0.00001855","ARG_OF_PERICENTER":"36.9409","ECCENTRICITY":"0.00022480","TLE_LINE2":"2 49748  53.2209 241.7924 0002248  36.9409 323.1737 15.08825552 27726","LAUNCH_DATE":"2021-12-02","SEMIMAJOR_AXIS":"6917.925","SITE":"AFETR","OBJECT_ID":"2021-115AA","RA_OF_ASC_NODE":"241.7924","PERIOD":"95.438","MEAN_ANOMALY":"323.1737","BSTAR":"-0.00009851400000","COUNTRY_CODE":"US","CENTER_NAME":"EARTH","TLE_LINE1":"1 49748U 21115AA  22145.76546116 -.00001855  00000-0 -98514-4 0  9994","GP_ID":"204514867","TIME_SYSTEM":"UTC","NORAD_CAT_ID":"49748","FILE":"3464331","EPOCH":"2022-05-25T18:22:15.844224","CLASSIFICATION_TYPE":"U","MEAN_MOTION_DDOT":"0.0000000000000","REF_FRAME":"TEME","MEAN_ELEMENT_THEORY":"SGP4","REV_AT_EPOCH":"2772","APOAPSIS":"541.345","RCS_SIZE":"LARGE","EPHEMERIS_TYPE":"0"},{"MEAN_MOTION_DDOT":"0.0000000000000","CLASSIFICATION_TYPE":"U","MEAN_ELEMENT_THEORY":"SGP4","REF_FRAME":"TEME","REV_AT_EPOCH":"2660","EPHEMERIS_TYPE":"0","APOAPSIS":"541.202","RCS_SIZE":"LARGE","FILE":"3464394","EPOCH":"2022-05-25T18:06:21.864672","TIME_SYSTEM":"UTC","NORAD_CAT_ID":"49749","TLE_LINE1":"1 49749U 21115AB  22145.75441973  .00000958  00000-0  78293-4 0  9992","CENTER_NAME":"EARTH","GP_ID":"204538928","MEAN_ANOMALY":"322.1199","PERIOD":"95.437","RA_OF_ASC_NODE":"241.8569","BSTAR":"0.00007829300000","COUNTRY_CODE":"US","SEMIMAJOR_AXIS":"6917.870","SITE":"AFETR","OBJECT_ID":"2021-115AB","MEAN_MOTION":"15.08843475","ECCENTRICITY":"0.00021210","ARG_OF_PERICENTER":"37.9943","MEAN_MOTION_DOT":"0.00000958","LAUNCH_DATE":"2021-12-02","TLE_LINE2":"2 49749  53.2131 241.8569 0002121  37.9943 322.1199 15.08843475 26602","ELEMENT_SET_NO":"999","OBJECT_NAME":"STARLINK-3250","DECAY_DATE":null,"INCLINATION":"53.2131","PERIAPSIS":"538.267","OBJECT_TYPE":"PAYLOAD"},{"APOAPSIS":"541.345","RCS_SIZE":"LARGE","EPHEMERIS_TYPE":"0","REV_AT_EPOCH":"130","REF_FRAME":"TEME","MEAN_ELEMENT_THEORY":"SGP4","CLASSIFICATION_TYPE":"U","MEAN_MOTION_DDOT":"0.0000000000000","EPOCH":"2022-05-25T22:00:00.999936","FILE":"3464394","NORAD_CAT_ID":"49750","TIME_SYSTEM":"UTC","GP_ID":"204540180","CENTER_NAME":"EARTH","TLE_LINE1":"1 49750U 21115AC  22145.91667824 -.00037988  00000-0 -23798-2 0  9990","COUNTRY_CODE":"US","BSTAR":"-0.00237980000000","PERIOD":"95.436","MEAN_ANOMALY":"36.3365","RA_OF_ASC_NODE":"241.1212","SITE":"AFETR","OBJECT_ID":"2021-115AC","SEMIMAJOR_AXIS":"6917.812","TLE_LINE2":"2 49750  53.2181 241.1212 0002411  25.5936  36.3365 15.08862376  1304","LAUNCH_DATE":"2021-12-02","MEAN_MOTION_DOT":"-0.00037988","ARG_OF_PERICENTER":"25.5936","ECCENTRICITY":"0.00024110","MEAN_MOTION":"15.08862376","OBJECT_TYPE":"PAYLOAD","PERIAPSIS":"538.009","INCLINATION":"53.2181","DECAY_DATE":null,"OBJECT_NAME":"STARLINK-3236","ELEMENT_SET_NO":"999"},{"BSTAR":"-0.00223390000000","COUNTRY_CODE":"US","PERIOD":"95.437","RA_OF_ASC_NODE":"241.1058","MEAN_ANOMALY":"84.3336","SEMIMAJOR_AXIS":"6917.847","OBJECT_ID":"2021-115AD","SITE":"AFETR","TLE_LINE2":"2 49751  53.2220 241.1058 0001964  37.6354  84.3336 15.08850802  1309","LAUNCH_DATE":"2021-12-02","MEAN_MOTION":"15.08850802","MEAN_MOTION_DOT":"-0.00035676","ARG_OF_PERICENTER":"37.6354","ECCENTRICITY":"0.00019640","PERIAPSIS":"538.354","INCLINATION":"53.2220","OBJECT_TYPE":"PAYLOAD","ELEMENT_SET_NO":"999","DECAY_DATE":null,"OBJECT_NAME":"STARLINK-3229","REV_AT_EPOCH":"130","APOAPSIS":"541.071","RCS_SIZE":"LARGE","EPHEMERIS_TYPE":"0","CLASSIFICATION_TYPE":"U","MEAN_MOTION_DDOT":"0.0000000000000","REF_FRAME":"TEME","MEAN_ELEMENT_THEORY":"SGP4","EPOCH":"2022-05-25T22:00:00.999936","FILE":"3464394","NORAD_CAT_ID":"49751","TIME_SYSTEM":"UTC","GP_ID":"204540431","CENTER_NAME":"EARTH","TLE_LINE1":"1 49751U 21115AD  22145.91667824 -.00035676  00000-0 -22339-2 0  9993"},{"REV_AT_EPOCH":"2674","EPHEMERIS_TYPE":"0","RCS_SIZE":"LARGE","APOAPSIS":"541.235","MEAN_MOTION_DDOT":"0.0000000000000","CLASSIFICATION_TYPE":"U","MEAN_ELEMENT_THEORY":"SGP4","REF_FRAME":"TEME","EPOCH":"2022-05-25T17:19:59.863296","FILE":"3464394","NORAD_CAT_ID":"49752","TIME_SYSTEM":"UTC","GP_ID":"204539179","TLE_LINE1":"1 49752U 21115AE  22145.72222064  .00002020  00000-0  14502-3 0  9995","CENTER_NAME":"EARTH","BSTAR":"0.00014502000000","COUNTRY_CODE":"US","PERIOD":"95.438","MEAN_ANOMALY":"311.2397","RA_OF_ASC_NODE":"232.0040","SEMIMAJOR_AXIS":"6917.888","SITE":"AFETR","OBJECT_ID":"2021-115AE","LAUNCH_DATE":"2021-12-02","TLE_LINE2":"2 49752  53.2177 232.0040 0002143  48.8780 311.2397 15.08837514 26747","MEAN_MOTION":"15.08837514","ARG_OF_PERICENTER":"48.8780","ECCENTRICITY":"0.00021430","MEAN_MOTION_DOT":"0.00002020","INCLINATION":"53.2177","PERIAPSIS":"538.270","OBJECT_TYPE":"PAYLOAD","ELEMENT_SET_NO":"999","OBJECT_NAME":"STARLINK-3209","DECAY_DATE":null}];
